     2.100          NAVIGATION                              RINEX VERSION / TYPE
fic2rin                                 02/12/2013 00:23:58 PGM / RUN BY / DATE
                                                            END OF HEADER
27 13  2 11 16  0  0.0 -.186893157661D-03  .159161572810D-11  .000000000000D+00
     .850000000000D+02  .746562500000D+02  .571630953581D-08  .208593372418D+01
     .387430191040D-05  .580659811385D-02  .351667404175D-05  .515363360214D+04
     .144000000000D+06 -.117346644402D-06 -.167032838969D+01 -.931322574615D-07
     .976270780340D+00  .319750000000D+03  .835875603128D+00 -.829320258803D-08
     .412517182996D-09  .100000000000D+01  .172700000000D+04  .000000000000D+00
     .240000000000D+01  .630000000000D+02 -.190921127796D-07  .850000000000D+02
     .136806000000D+06  .400000000000D+01
28 13  2 11 16  0  0.0  .231744255871D-03  .341060513165D-11  .000000000000D+00
     .300000000000D+02  .567500000000D+02  .433053752713D-08  .191974212396D+01
     .263005495071D-05  .186654194258D-01  .282749533653D-05  .515363221931D+04
     .144000000000D+06  .154599547386D-06 -.162466797639D+01 -.437721610069D-06
     .981719990727D+00  .334000000000D+03 -.178317320313D+01 -.813533886952D-08
     .377515725045D-09  .100000000000D+01  .172700000000D+04  .000000000000D+00
     .240000000000D+01  .000000000000D+00 -.107102096081D-07  .300000000000D+02
     .136806000000D+06  .400000000000D+01
29 13  2 11 16  0  0.0  .406892504543D-03  .375166564481D-11  .000000000000D+00
     .920000000000D+02 -.109312500000D+03  .453376027789D-08 -.223016529579D+01
    -.556558370590D-05  .190428458154D-02  .613741576672D-05  .515370019913D+04
     .144000000000D+06  .502914190292D-07 -.583932019752D+00  .521540641785D-07
     .965488895619D+00  .261812500000D+03 -.111577509018D+01 -.824534345165D-08
    -.388587614805D-09  .100000000000D+01  .172700000000D+04  .000000000000D+00
     .240000000000D+01  .000000000000D+00 -.977888703346D-08  .920000000000D+02
     .136806000000D+06  .400000000000D+01
30 13  2 11 16  0  0.0 -.228122808039D-03  .105728759081D-10  .000000000000D+00
     .870000000000D+02  .834375000000D+02  .477412743300D-08  .112742534113D+01
     .419281423092D-05  .108488615369D-01  .429712235928D-05  .515361904144D+04
     .144000000000D+06 -.160187482834D-06 -.177977814917D+01 -.176951289177D-06
     .962531701812D+00  .299312500000D+03  .161182994129D+01 -.856214236188D-08
     .419303179946D-09  .100000000000D+01  .172700000000D+04  .000000000000D+00
     .685000000000D+01  .000000000000D+00 -.419095158577D-08  .870000000000D+02
     .136806000000D+06  .400000000000D+01
31 13  2 11 16  0  0.0  .301977153867D-03  .181898940355D-11  .000000000000D+00
     .960000000000D+02  .528750000000D+02  .374444168531D-08 -.169768727650D+01
     .274553894997D-05  .811188307125D-02  .131241977215D-04  .515354203987D+04
     .144000000000D+06 -.141561031342D-06 -.270337246350D+01  .298023223877D-07
     .981014001091D+00  .141906250000D+03 -.778191055055D+00 -.768282002029D-08
     .853606984729D-10  .100000000000D+01  .172700000000D+04  .000000000000D+00
     .340000000000D+01  .000000000000D+00 -.130385160446D-07  .960000000000D+02
     .136806000000D+06  .400000000000D+01
32 13  2 11 16  0  0.0 -.534577295184D-03 -.341060513165D-11  .000000000000D+00
     .860000000000D+02  .418437500000D+02  .540415367612D-08 -.107008343334D+01
     .221095979214D-05  .116023218725D-01  .412948429585D-05  .515375039673D+04
     .144000000000D+06  .000000000000D+00  .154957356210D+01 -.137835741043D-06
     .949390978722D+00  .295656250000D+03 -.399527823835D+00 -.873322091656D-08
     .430017911972D-09  .100000000000D+01  .172700000000D+04  .000000000000D+00
     .240000000000D+01  .000000000000D+00 -.325962901115D-08  .860000000000D+02
     .136806000000D+06  .400000000000D+01
 3 13  2 11 15 59 44.0  .167098361999D-03  .511590769747D-11  .000000000000D+00
     .100000000000D+02 -.880000000000D+02  .544915555063D-08 -.546956718486D-01
    -.464357435703D-05  .159754287452D-01  .448711216450D-05  .515367685509D+04
     .143984000000D+06 -.175088644028D-06 -.771717120293D+00  .122934579849D-06
     .933557675910D+00  .280875000000D+03  .126933154887D+01 -.903751930610D-08
    -.305369862738D-09  .100000000000D+01  .172700000000D+04  .000000000000D+00
     .240000000000D+01  .000000000000D+00 -.465661287308D-08  .100000000000D+02
     .138816000000D+06  .400000000000D+01
31 13  2 11 15 59 44.0  .301975756884D-03  .181898940355D-11  .000000000000D+00
     .600000000000D+01  .528750000000D+02  .374444168531D-08 -.170002108434D+01
     .274553894997D-05  .811188132502D-02  .131241977215D-04  .515354203987D+04
     .143984000000D+06 -.141561031342D-06 -.270337232453D+01  .298023223877D-07
     .981014004017D+00  .141906250000D+03 -.778191122350D+00 -.768282002029D-08
     .853606984729D-10  .100000000000D+01  .172700000000D+04  .000000000000D+00
     .240000000000D+01  .000000000000D+00 -.130385160446D-07  .600000000000D+01
     .139956000000D+06  .400000000000D+01
 3 13  2 11 17 59 44.0  .167135149240D-03  .511590769747D-11  .000000000000D+00
     .540000000000D+02 -.860625000000D+02  .553237330270D-08  .995531561234D+00
    -.463984906673D-05  .159738287330D-01  .398792326450D-05  .515367354584D+04
     .151184000000D+06 -.195577740669D-06 -.771781637906D+00 -.558793544769D-07
     .933554906606D+00  .293000000000D+03  .126929117233D+01 -.902930467821D-08
    -.419303179946D-09  .100000000000D+01  .172700000000D+04  .000000000000D+00
     .240000000000D+01  .000000000000D+00 -.465661287308D-08  .540000000000D+02
     .144006000000D+06  .400000000000D+01
31 13  2 11 17 59 44.0  .301988329738D-03  .181898940355D-11  .000000000000D+00
     .700000000000D+01  .429375000000D+02  .375801367921D-08 -.649875234849D+00
     .218674540520D-05  .811215757858D-02  .131819397211D-04  .515354066086D+04
     .151184000000D+06 -.119209289551D-06 -.270342774718D+01 -.987201929092D-07
     .981014616979D+00  .139250000000D+03 -.778079893762D+00 -.770817821942D-08
     .571452374714D-10  .100000000000D+01  .172700000000D+04  .000000000000D+00
     .240000000000D+01  .000000000000D+00 -.130385160446D-07  .700000000000D+01
     .144006000000D+06  .400000000000D+01
 1 13  2 11 18  0  0.0 -.201631337404D-06  .272848410532D-11  .000000000000D+00
     .890000000000D+02 -.853125000000D+01  .425660587615D-08 -.863635414339D-01
    -.424683094025D-06  .158233765978D-02  .128317624331D-04  .515371553802D+04
     .151200000000D+06  .447034835815D-07  .415240174043D+00  .130385160446D-07
     .960589281611D+00  .134375000000D+03  .426368670869D+00 -.785818446778D-08
     .253939149013D-09  .100000000000D+01  .172700000000D+04  .000000000000D+00
     .240000000000D+01  .000000000000D+00  .838190317154D-08  .890000000000D+02
     .144006000000D+06  .400000000000D+01
 2 13  2 11 18  0  0.0  .418134499341D-03  .159161572810D-11  .000000000000D+00
     .470000000000D+02  .300000000000D+01  .480805741775D-08  .838883870332D+00
     .130385160446D-06  .120180468075D-01  .132527202368D-04  .515361583138D+04
     .151200000000D+06 -.856816768646D-07  .395878225049D+00  .206753611565D-06
     .939114835022D+00  .114281250000D+03 -.267146412822D+01 -.819498421113D-08
     .128933942045D-09  .100000000000D+01  .172700000000D+04  .000000000000D+00
     .240000000000D+01  .000000000000D+00 -.176951289177D-07  .470000000000D+02
     .144006000000D+06  .400000000000D+01
 4 13  2 11 18  0  0.0  .131699722260D-03  .111413100967D-10  .000000000000D+00
     .670000000000D+02  .643750000000D+01  .474305471012D-08 -.219470070907D+01
     .391155481339D-07  .103580052964D-01  .126548111439D-04  .515375254440D+04
     .151200000000D+06  .108033418655D-06  .412430549171D+00 -.558793544769D-07
     .938143679781D+00  .117531250000D+03  .959557738574D+00 -.793854495798D-08
     .372872674501D-09  .100000000000D+01  .172700000000D+04  .000000000000D+00
     .240000000000D+01  .000000000000D+00 -.605359673500D-08  .670000000000D+02
     .144006000000D+06  .400000000000D+01
 5 13  2 11 18  0  0.0 -.383254140615D-03 -.181898940355D-11  .000000000000D+00
     .650000000000D+02  .554687500000D+02  .538165273887D-08  .288931719262D+01
     .290200114250D-05  .306860927958D-02  .474415719509D-05  .515355073738D+04
     .151200000000D+06 -.223517417908D-07  .146056212431D+01 -.298023223877D-07
     .948858331712D+00  .283218750000D+03  .322521840821D+00 -.852321216886D-08
     .418588864478D-09  .100000000000D+01  .172700000000D+04  .000000000000D+00
     .240000000000D+01  .000000000000D+00 -.102445483208D-07  .650000000000D+02
     .144006000000D+06  .400000000000D+01
 6 13  2 11 18  0  0.0  .354514922947D-03 -.144382283906D-10  .000000000000D+00
     .930000000000D+02 -.100687500000D+03  .514807158070D-08  .288508506132D+01
    -.512786209583D-05  .770637975074D-02  .427477061749D-05  .515368636703D+04
     .151200000000D+06 -.186264514923D-07 -.693107896097D+00  .912696123123D-07
     .940317824743D+00  .284031250000D+03 -.385363976802D+00 -.853285542768D-08
    -.358943522867D-09  .100000000000D+01  .172700000000D+04  .000000000000D+00
     .240000000000D+01  .000000000000D+00 -.512227416039D-08  .930000000000D+02
     .144006000000D+06  .400000000000D+01
 7 13  2 11 18  0  0.0  .179507769644D-03  .432009983342D-11  .000000000000D+00
     .290000000000D+02  .471562500000D+02  .380873007747D-08 -.561341488092D+00
     .230781733990D-05  .606878672261D-02  .123828649521D-04  .515371546555D+04
     .151200000000D+06  .139698386192D-06 -.270749539967D+01  .745058059692D-08
     .975997356562D+00  .151343750000D+03 -.292512812813D+01 -.772853621027D-08
    -.653598653579D-10  .100000000000D+01  .172700000000D+04  .000000000000D+00
     .240000000000D+01  .000000000000D+00 -.107102096081D-07  .290000000000D+02
     .144006000000D+06  .400000000000D+01
